{
    "links": {
        "self": "http://www.neowsapp.com/rest/v1/neo/54016393?api_key=iIulBulltgU6a56xZRHN4H3l9WmuAYTsLGpBGhQ2"
    },
    "id": "54016393",
    "neo_reference_id": "54016393",
    "name": "(2020 FU5)",
    "designation": "2020 FU5",
    "nasa_jpl_url": "http://ssd.jpl.nasa.gov/sbdb.cgi?sstr=54016393",
    "absolute_magnitude_h": 23.487,
    "estimated_diameter": {
        "kilometers": {
            "estimated_diameter_min": 0.0533525248,
            "estimated_diameter_max": 0.1192998723
        },
        "meters": {
            "estimated_diameter_min": 53.3525248313,
            "estimated_diameter_max": 119.299872294
        },
        "miles": {
            "estimated_diameter_min": 0.0331517117,
            "estimated_diameter_max": 0.0741294809
        },
        "feet": {
            "estimated_diameter_min": 175.0410975675,
            "estimated_diameter_max": 391.403793017
        }
    },
    "is_potentially_hazardous_asteroid": false,
    "close_approach_data": [
        {
            "close_approach_date": "2020-03-04",
            "close_approach_date_full": "2020-Mar-04 02:24",
            "epoch_date_close_approach": 1583288640000,
            "relative_velocity": {
                "kilometers_per_second": "11.6440878109",
                "kilometers_per_hour": "41918.7161193358",
                "miles_per_hour": "26046.6600242617"
            },
            "miss_distance": {
                "astronomical": "0.1128108531",
                "lunar": "43.8834218559",
                "kilometers": "16876263.336642897",
                "miles": "10486423.7754580986"
            },
            "orbiting_body": "Earth"
        }
    ],
    "orbital_data": {
        "orbit_id": "2",
        "orbit_determination_date": "2020-04-01 05:54:56",
        "first_observation_date": "2020-03-25",
        "last_observation_date": "2020-04-01",
        "data_arc_in_days": 7,
        "observations_used": 26,
        "orbit_uncertainty": "9",
        "minimum_orbit_intersection": ".100422",
        "jupiter_tisserand_invariant": "3.751",
        "epoch_osculation": "2458934.5",
        "eccentricity": ".4983914836919089",
        "semi_major_axis": "1.914418795946986",
        "inclination": "10.72236446846763",
        "ascending_node_longitude": "5.120264547297968",
        "orbital_period": "967.5064104542987",
        "perihelion_distance": ".9602887718272901",
        "perihelion_argument": "112.6657414152448",
        "aphelion_distance": "2.868548820066683",
        "perihelion_time": "2458877.178915779741",
        "mean_anomaly": "21.32863420471154",
        "mean_motion": ".3720905578609652",
        "equinox": "J2000",
        "orbit_class": {
            "orbit_class_type": "APO",
            "orbit_class_description": "Near-Earth asteroid orbits which cross the Earth’s orbit similar to that of 1862 Apollo",
            "orbit_class_range": "a (semi-major axis) > 1.0 AU; q (perihelion) < 1.017 AU"
        }
    },
    "is_sentry_object": false
}